{
  "type": "FeatureCollection",
  "features": [
    {
      "type": "Feature",
      "properties": {
        "norad_id": 37781,
        "name": "HAIYANG-2A",
        "group": "resource",
        "lat": 0.20236376037182918,
        "lon": -20.395198646594896,
        "alt_km": 970.936614792372,
        "timestamp": "2025-12-04T13:52:00.104878+00:00",
        "meta_object_name": "HAIYANG-2A",
        "meta_object_id": "2011-043A",
        "meta_epoch": "2025-12-04T06:53:58.556256",
        "meta_mean_motion": 13.78834331,
        "meta_eccentricity": 0.00016456,
        "meta_inclination": 99.3377,
        "meta_ra_of_asc_node": 339.3523,
        "meta_arg_of_pericenter": 95.9201,
        "meta_mean_anomaly": 264.2138,
        "meta_ephemeris_type": 0,
        "meta_classification_type": "U",
        "meta_norad_cat_id": 37781,
        "meta_element_set_no": 999,
        "meta_rev_at_epoch": 71982,
        "meta_bstar": 6.5495973e-05,
        "meta_mean_motion_dot": 2.3e-07,
        "meta_mean_motion_ddot": 0,
        "tle_line1": "1 37781U 11043A   25338.28748329  .00000023  00000+0  65496-4 0  9997",
        "tle_line2": "2 37781  99.3377 339.3523 0001645  95.9201 264.2138 13.78834331719820"
      },
      "geometry": {
        "type": "Point",
        "coordinates": [
          -20.395198646594896,
          0.20236376037182918
        ]
      }
    },
    {
      "type": "Feature",
      "properties": {
        "norad_id": 37791,
        "name": "RASAT",
        "group": "resource",
        "lat": 23.7293177112774,
        "lon": 64.38289590119146,
        "alt_km": 660.8338997328219,
        "timestamp": "2025-12-04T13:52:00.104888+00:00",
        "meta_object_name": "RASAT",
        "meta_object_id": "2011-044D",
        "meta_epoch": "2025-12-04T07:37:57.646848",
        "meta_mean_motion": 14.67891686,
        "meta_eccentricity": 0.00219581,
        "meta_inclination": 98.0656,
        "meta_ra_of_asc_node": 67.7008,
        "meta_arg_of_pericenter": 90.3716,
        "meta_mean_anomaly": 2.1379,
        "meta_ephemeris_type": 0,
        "meta_classification_type": "U",
        "meta_norad_cat_id": 37791,
        "meta_element_set_no": 999,
        "meta_rev_at_epoch": 76459,
        "meta_bstar": 0.00024009439,
        "meta_mean_motion_dot": 1.328e-05,
        "meta_mean_motion_ddot": 0,
        "tle_line1": "1 37791U 11044D   25338.31802832  .00001328  00000+0  24009-3 0  9996",
        "tle_line2": "2 37791  98.0656  67.7008 0021958  90.3716   2.1379 14.67891686764591"
      },
      "geometry": {
        "type": "Point",
        "coordinates": [
          64.38289590119146,
          23.7293177112774
        ]
      }
    },
    {
      "type": "Feature",
      "properties": {
        "norad_id": 37841,
        "name": "SRMSAT",
        "group": "resource",
        "lat": -19.957877365276946,
        "lon": 67.69537531636308,
        "alt_km": 848.3504089166163,
        "timestamp": "2025-12-04T13:52:00.104898+00:00",
        "meta_object_name": "SRMSAT",
        "meta_object_id": "2011-058D",
        "meta_epoch": "2025-12-03T21:51:18.053568",
        "meta_mean_motion": 14.11506789,
        "meta_eccentricity": 0.0011726,
        "meta_inclination": 19.9698,
        "meta_ra_of_asc_node": 161.3894,
        "meta_arg_of_pericenter": 215.5538,
        "meta_mean_anomaly": 257.2435,
        "meta_ephemeris_type": 0,
        "meta_classification_type": "U",
        "meta_norad_cat_id": 37841,
        "meta_element_set_no": 999,
        "meta_rev_at_epoch": 73019,
        "meta_bstar": 0.00015324,
        "meta_mean_motion_dot": 5.47e-06,
        "meta_mean_motion_ddot": 0,
        "tle_line1": "1 37841U 11058D   25337.91062562  .00000547  00000+0  15324-3 0  9992",
        "tle_line2": "2 37841  19.9698 161.3894 0011726 215.5538 257.2435 14.11506789730195"
      },
      "geometry": {
        "type": "Point",
        "coordinates": [
          67.69537531636308,
          -19.957877365276946
        ]
      }
    },
    {
      "type": "Feature",
      "properties": {
        "norad_id": 38012,
        "name": "PLEIADES 1A",
        "group": "resource",
        "lat": 81.0632905354356,
        "lon": -62.309808695607586,
        "alt_km": 689.4588675394007,
        "timestamp": "2025-12-04T13:52:00.104909+00:00",
        "meta_object_name": "PLEIADES 1A",
        "meta_object_id": "2011-076F",
        "meta_epoch": "2025-12-04T08:48:56.357280",
        "meta_mean_motion": 14.58549342,
        "meta_eccentricity": 0.00013977,
        "meta_inclination": 98.1833,
        "meta_ra_of_asc_node": 51.2648,
        "meta_arg_of_pericenter": 80.9824,
        "meta_mean_anomaly": 348.1747,
        "meta_ephemeris_type": 0,
        "meta_classification_type": "U",
        "meta_norad_cat_id": 38012,
        "meta_element_set_no": 999,
        "meta_rev_at_epoch": 74359,
        "meta_bstar": 0.00020460392,
        "meta_mean_motion_dot": 9.06e-06,
        "meta_mean_motion_ddot": 0,
        "tle_line1": "1 38012U 11076F   25338.36731895  .00000906  00000+0  20460-3 0  9991",
        "tle_line2": "2 38012  98.1833  51.2648 0001397  80.9824 348.1747 14.58549342743592"
      },
      "geometry": {
        "type": "Point",
        "coordinates": [
          -62.309808695607586,
          81.0632905354356
        ]
      }
    },
    {
      "type": "Feature",
      "properties": {
        "norad_id": 38038,
        "name": "ZIYUAN 1-02C (ZY 1-02C)",
        "group": "resource",
        "lat": -63.07824110112916,
        "lon": -152.2478637581939,
        "alt_km": 771.7169760133465,
        "timestamp": "2025-12-04T13:52:00.104919+00:00",
        "meta_object_name": "ZIYUAN 1-02C (ZY 1-02C)",
        "meta_object_id": "2011-079A",
        "meta_epoch": "2025-12-04T08:20:22.653024",
        "meta_mean_motion": 14.37998305,
        "meta_eccentricity": 0.00068213,
        "meta_inclination": 98.4345,
        "meta_ra_of_asc_node": 44.5155,
        "meta_arg_of_pericenter": 161.7154,
        "meta_mean_anomaly": 330.9926,
        "meta_ephemeris_type": 0,
        "meta_classification_type": "U",
        "meta_norad_cat_id": 38038,
        "meta_element_set_no": 999,
        "meta_rev_at_epoch": 73120,
        "meta_bstar": 0.00037033297,
        "meta_mean_motion_dot": 1.077e-05,
        "meta_mean_motion_ddot": 0,
        "tle_line1": "1 38038U 11079A   25338.34748441  .00001077  00000+0  37033-3 0  9999",
        "tle_line2": "2 38038  98.4345  44.5155 0006821 161.7154 330.9926 14.37998305731207"
      },
      "geometry": {
        "type": "Point",
        "coordinates": [
          -152.2478637581939,
          -63.07824110112916
        ]
      }
    },
    {
      "type": "Feature",
      "properties": {
        "norad_id": 38046,
        "name": "ZIYUAN 3-1 (ZY 3-1)",
        "group": "resource",
        "lat": -12.527239586591085,
        "lon": -136.79081396683182,
        "alt_km": 373.4082259827701,
        "timestamp": "2025-12-04T13:52:00.104934+00:00",
        "meta_object_name": "ZIYUAN 3-1 (ZY 3-1)",
        "meta_object_id": "2012-001A",
        "meta_epoch": "2025-12-04T08:26:59.972928",
        "meta_mean_motion": 15.66988285,
        "meta_eccentricity": 0.00021585,
        "meta_inclination": 97.1775,
        "meta_ra_of_asc_node": 44.5832,
        "meta_arg_of_pericenter": 28.5107,
        "meta_mean_anomaly": 331.6272,
        "meta_ephemeris_type": 0,
        "meta_classification_type": "U",
        "meta_norad_cat_id": 38046,
        "meta_element_set_no": 999,
        "meta_rev_at_epoch": 77365,
        "meta_bstar": 0.001188269,
        "meta_mean_motion_dot": 0.0012773,
        "meta_mean_motion_ddot": 0,
        "tle_line1": "1 38046U 12001A   25338.35208302  .00127730  00000+0  11883-2 0  9991",
        "tle_line2": "2 38046  97.1775  44.5832 0002158  28.5107 331.6272 15.66988285773654"
      },
      "geometry": {
        "type": "Point",
        "coordinates": [
          -136.79081396683182,
          -12.527239586591085
        ]
      }
    },
    {
      "type": "Feature",
      "properties": {
        "norad_id": 38338,
        "name": "ARIRANG-3 (KOMPSAT-3)",
        "group": "resource",
        "lat": -75.79554340581836,
        "lon": 77.732566811276,
        "alt_km": 696.1918151282871,
        "timestamp": "2025-12-04T13:52:00.104958+00:00",
        "meta_object_name": "ARIRANG-3 (KOMPSAT-3)",
        "meta_object_id": "2012-025B",
        "meta_epoch": "2025-12-04T07:45:31.996800",
        "meta_mean_motion": 14.6169547,
        "meta_eccentricity": 0.00059577,
        "meta_inclination": 98.331,
        "meta_ra_of_asc_node": 292.8499,
        "meta_arg_of_pericenter": 5.4495,
        "meta_mean_anomaly": 354.677,
        "meta_ephemeris_type": 0,
        "meta_classification_type": "U",
        "meta_norad_cat_id": 38338,
        "meta_element_set_no": 999,
        "meta_rev_at_epoch": 72287,
        "meta_bstar": 0.00025236862,
        "meta_mean_motion_dot": 1.209e-05,
        "meta_mean_motion_ddot": 0,
        "tle_line1": "1 38338U 12025B   25338.32328700  .00001209  00000+0  25237-3 0  9994",
        "tle_line2": "2 38338  98.3310 292.8499 0005957   5.4495 354.6770 14.61695470722878"
      },
      "geometry": {
        "type": "Point",
        "coordinates": [
          77.732566811276,
          -75.79554340581836
        ]
      }
    }
  ]
}